IRIDIUM 119             
1 42959U 17061E   23307.60030632  .00000214  00000+0  69484-4 0  9990
2 42959  86.3970  65.0059 0001732  98.0212 262.1180 14.34219585317704
IRIDIUM 107             
1 42960U 17061F   23307.82863960  .00000043  00000+0  82632-5 0  9995
2 42960  86.3973  64.9257 0001984 101.7857 258.3561 14.34214230317750
IRIDIUM 132             
1 42961U 17061G   23307.83498491  .00000537  00000+0  18469-3 0  9993
2 42961  86.3972  64.9093 0001819  99.9670 260.1731 14.34217587317743
IRIDIUM 136             
1 42962U 17061H   23307.86669751  .00000156  00000+0  48533-4 0  9999
2 42962  86.3972  64.8983 0001826  89.2337 270.9068 14.34215007317760
IRIDIUM 139             
1 42963U 17061J   23308.08234518  .00000079  00000+0  20996-4 0  9991
2 42963  86.3975  64.8550 0001919 100.6848 259.4564 14.34218671317800
IRIDIUM 125             
1 42964U 17061K   23308.41850081  .00000489  00000+0  16771-3 0  9998
2 42964  86.3977  64.7580 0001739  98.5770 261.5623 14.34216082317864
IRIDIUM 135             
1 43070U 17083A   23308.39263081  .00000437  00000+0  14910-3 0  9992
2 43070  86.4003   1.4828 0002465  96.2655 263.8821 14.34218354307151
IRIDIUM 138             
1 43071U 17083B   23307.85985239  .00000422  00000+0  14359-3 0  9990
2 43071  86.3994   1.4513 0001917  94.6835 265.4580 14.34218191307063
